<?xml version="1.0" encoding="UTF-8"?>
<ndm xmlns:xsi="http://www.w3.org/2001/XMLSchema-instance" xsi:noNamespaceSchemaLocation="https://sanaregistry.org/r/ndmxml_unqualified/ndmxml-2.0.0-master-2.0.xsd">
<omm id="CCSDS_OMM_VERS" version="2.0">
<header><CREATION_DATE/><ORIGINATOR/></header><body><segment><metadata><OBJECT_NAME>SL-3 R/B</OBJECT_NAME><OBJECT_ID>1970-113B</OBJECT_ID><CENTER_NAME>EARTH</CENTER_NAME><REF_FRAME>TEME</REF_FRAME><TIME_SYSTEM>UTC</TIME_SYSTEM><MEAN_ELEMENT_THEORY>SGP4</MEAN_ELEMENT_THEORY></metadata><data><meanElements><EPOCH>2023-02-04T03:40:53.108544</EPOCH><MEAN_MOTION>15.46422427</MEAN_MOTION><ECCENTRICITY>.0019296</ECCENTRICITY><INCLINATION>81.1363</INCLINATION><RA_OF_ASC_NODE>76.5618</RA_OF_ASC_NODE><ARG_OF_PERICENTER>181.9655</ARG_OF_PERICENTER><MEAN_ANOMALY>178.1518</MEAN_ANOMALY></meanElements><tleParameters><EPHEMERIS_TYPE>0</EPHEMERIS_TYPE><CLASSIFICATION_TYPE>U</CLASSIFICATION_TYPE><NORAD_CAT_ID>4814</NORAD_CAT_ID><ELEMENT_SET_NO>999</ELEMENT_SET_NO><REV_AT_EPOCH>85043</REV_AT_EPOCH><BSTAR>.35906E-3</BSTAR><MEAN_MOTION_DOT>.17941E-3</MEAN_MOTION_DOT><MEAN_MOTION_DDOT>0</MEAN_MOTION_DDOT></tleParameters></data></segment></body></omm>
<omm id="CCSDS_OMM_VERS" version="2.0">
<header><CREATION_DATE/><ORIGINATOR/></header><body><segment><metadata><OBJECT_NAME>SL-3 R/B</OBJECT_NAME><OBJECT_ID>1971-028B</OBJECT_ID><CENTER_NAME>EARTH</CENTER_NAME><REF_FRAME>TEME</REF_FRAME><TIME_SYSTEM>UTC</TIME_SYSTEM><MEAN_ELEMENT_THEORY>SGP4</MEAN_ELEMENT_THEORY></metadata><data><meanElements><EPOCH>2023-02-03T21:15:29.005632</EPOCH><MEAN_MOTION>15.18567828</MEAN_MOTION><ECCENTRICITY>.0041709</ECCENTRICITY><INCLINATION>81.2565</INCLINATION><RA_OF_ASC_NODE>310.3260</RA_OF_ASC_NODE><ARG_OF_PERICENTER>219.1377</ARG_OF_PERICENTER><MEAN_ANOMALY>140.6835</MEAN_ANOMALY></meanElements><tleParameters><EPHEMERIS_TYPE>0</EPHEMERIS_TYPE><CLASSIFICATION_TYPE>U</CLASSIFICATION_TYPE><NORAD_CAT_ID>5118</NORAD_CAT_ID><ELEMENT_SET_NO>999</ELEMENT_SET_NO><REV_AT_EPOCH>81544</REV_AT_EPOCH><BSTAR>.26162E-3</BSTAR><MEAN_MOTION_DOT>.5556E-4</MEAN_MOTION_DOT><MEAN_MOTION_DDOT>0</MEAN_MOTION_DDOT></tleParameters></data></segment></body></omm>
<omm id="CCSDS_OMM_VERS" version="2.0">
<header><CREATION_DATE/><ORIGINATOR/></header><body><segment><metadata><OBJECT_NAME>ASTEX 1</OBJECT_NAME><OBJECT_ID>1971-089A</OBJECT_ID><CENTER_NAME>EARTH</CENTER_NAME><REF_FRAME>TEME</REF_FRAME><TIME_SYSTEM>UTC</TIME_SYSTEM><MEAN_ELEMENT_THEORY>SGP4</MEAN_ELEMENT_THEORY></metadata><data><meanElements><EPOCH>2023-02-04T04:38:23.598816</EPOCH><MEAN_MOTION>14.48501620</MEAN_MOTION><ECCENTRICITY>.0014114</ECCENTRICITY><INCLINATION>92.7163</INCLINATION><RA_OF_ASC_NODE>146.9531</RA_OF_ASC_NODE><ARG_OF_PERICENTER>296.7845</ARG_OF_PERICENTER><MEAN_ANOMALY>63.1915</MEAN_ANOMALY></meanElements><tleParameters><EPHEMERIS_TYPE>0</EPHEMERIS_TYPE><CLASSIFICATION_TYPE>U</CLASSIFICATION_TYPE><NORAD_CAT_ID>5560</NORAD_CAT_ID><ELEMENT_SET_NO>999</ELEMENT_SET_NO><REV_AT_EPOCH>69895</REV_AT_EPOCH><BSTAR>.17065E-3</BSTAR><MEAN_MOTION_DOT>.639E-5</MEAN_MOTION_DOT><MEAN_MOTION_DDOT>0</MEAN_MOTION_DDOT></tleParameters></data></segment></body></omm>
<omm id="CCSDS_OMM_VERS" version="2.0">
<header><CREATION_DATE/><ORIGINATOR/></header><body><segment><metadata><OBJECT_NAME>SL-8 R/B</OBJECT_NAME><OBJECT_ID>1971-119B</OBJECT_ID><CENTER_NAME>EARTH</CENTER_NAME><REF_FRAME>TEME</REF_FRAME><TIME_SYSTEM>UTC</TIME_SYSTEM><MEAN_ELEMENT_THEORY>SGP4</MEAN_ELEMENT_THEORY></metadata><data><meanElements><EPOCH>2023-02-04T04:24:22.057632</EPOCH><MEAN_MOTION>14.11428337</MEAN_MOTION><ECCENTRICITY>.0658726</ECCENTRICITY><INCLINATION>73.9029</INCLINATION><RA_OF_ASC_NODE>83.3442</RA_OF_ASC_NODE><ARG_OF_PERICENTER>278.8139</ARG_OF_PERICENTER><MEAN_ANOMALY>73.9004</MEAN_ANOMALY></meanElements><tleParameters><EPHEMERIS_TYPE>0</EPHEMERIS_TYPE><CLASSIFICATION_TYPE>U</CLASSIFICATION_TYPE><NORAD_CAT_ID>5730</NORAD_CAT_ID><ELEMENT_SET_NO>999</ELEMENT_SET_NO><REV_AT_EPOCH>49466</REV_AT_EPOCH><BSTAR>.56414E-3</BSTAR><MEAN_MOTION_DOT>.9179E-4</MEAN_MOTION_DOT><MEAN_MOTION_DDOT>0</MEAN_MOTION_DDOT></tleParameters></data></segment></body></omm>
<omm id="CCSDS_OMM_VERS" version="2.0">
<header><CREATION_DATE/><ORIGINATOR/></header><body><segment><metadata><OBJECT_NAME>SL-8 R/B</OBJECT_NAME><OBJECT_ID>1975-112B</OBJECT_ID><CENTER_NAME>EARTH</CENTER_NAME><REF_FRAME>TEME</REF_FRAME><TIME_SYSTEM>UTC</TIME_SYSTEM><MEAN_ELEMENT_THEORY>SGP4</MEAN_ELEMENT_THEORY></metadata><data><meanElements><EPOCH>2023-02-03T03:02:47.284224</EPOCH><MEAN_MOTION>14.37033606</MEAN_MOTION><ECCENTRICITY>.0016781</ECCENTRICITY><INCLINATION>74.0624</INCLINATION><RA_OF_ASC_NODE>296.6513</RA_OF_ASC_NODE><ARG_OF_PERICENTER>307.5257</ARG_OF_PERICENTER><MEAN_ANOMALY>52.4370</MEAN_ANOMALY></meanElements><tleParameters><EPHEMERIS_TYPE>0</EPHEMERIS_TYPE><CLASSIFICATION_TYPE>U</CLASSIFICATION_TYPE><NORAD_CAT_ID>8459</NORAD_CAT_ID><ELEMENT_SET_NO>999</ELEMENT_SET_NO><REV_AT_EPOCH>46940</REV_AT_EPOCH><BSTAR>.81047E-4</BSTAR><MEAN_MOTION_DOT>.215E-5</MEAN_MOTION_DOT><MEAN_MOTION_DDOT>0</MEAN_MOTION_DDOT></tleParameters></data></segment></body></omm>

</ndm>
