SL-3 R/B                
1 04814U 70113B   23035.15339246  .00017941  00000+0  35906-3 0  9992
2 04814  81.1363  76.5618 0019296 181.9655 178.1518 15.46422427850434
SL-3 R/B                
1 05118U 71028B   23034.88575238  .00005556  00000+0  26162-3 0  9991
2 05118  81.2565 310.3260 0041709 219.1377 140.6835 15.18567828815440
ASTEX 1                 
1 05560U 71089A   23035.19332869  .00000639  00000+0  17065-3 0  9994
2 05560  92.7163 146.9531 0014114 296.7845  63.1915 14.48501620698950
SL-8 R/B                
1 05730U 71119B   23035.18358863  .00009179  00000+0  56414-3 0  9997
2 05730  73.9029  83.3442 0658726 278.8139  73.9004 14.11428337494669
SL-8 R/B                
1 08459U 75112B   23034.12693616  .00000215  00000+0  81047-4 0  9999
2 08459  74.0624 296.6513 0016781 307.5257  52.4370 14.37033606469402
